[{"OBJECT_NAME":"STARLINK-3712","OBJECT_ID":"2022-029C","EPOCH":"2026-03-07T07:06:14.781024","MEAN_MOTION":15.08840602,"ECCENTRICITY":0.000134,"INCLINATION":53.217,"RA_OF_ASC_NODE":99.8674,"ARG_OF_PERICENTER":92.4439,"MEAN_ANOMALY":267.6706,"EPHEMERIS_TYPE":0,"CLASSIFICATION_TYPE":"U","NORAD_CAT_ID":52090,"ELEMENT_SET_NO":999,"REV_AT_EPOCH":22029,"BSTAR":0.00011026951,"MEAN_MOTION_DOT":1.467e-5,"MEAN_MOTION_DDOT":0},{"OBJECT_NAME":"STARLINK-3716","OBJECT_ID":"2022-029E","EPOCH":"2026-03-07T07:11:32.582688","MEAN_MOTION":15.08839308,"ECCENTRICITY":0.0001337,"INCLINATION":53.2153,"RA_OF_ASC_NODE":99.8483,"ARG_OF_PERICENTER":91.4197,"MEAN_ANOMALY":268.6949,"EPHEMERIS_TYPE":0,"CLASSIFICATION_TYPE":"U","NORAD_CAT_ID":52092,"ELEMENT_SET_NO":999,"REV_AT_EPOCH":22029,"BSTAR":2.6440272e-5,"MEAN_MOTION_DOT":1.33e-6,"MEAN_MOTION_DDOT":0},{"OBJECT_NAME":"STARLINK-3673","OBJECT_ID":"2022-029F","EPOCH":"2026-03-07T06:57:01.949760","MEAN_MOTION":15.08845289,"ECCENTRICITY":0.00016009,"INCLINATION":53.2153,"RA_OF_ASC_NODE":99.9078,"ARG_OF_PERICENTER":87.3404,"MEAN_ANOMALY":272.7771,"EPHEMERIS_TYPE":0,"CLASSIFICATION_TYPE":"U","NORAD_CAT_ID":52093,"ELEMENT_SET_NO":999,"REV_AT_EPOCH":22029,"BSTAR":-2.3586307e-5,"MEAN_MOTION_DOT":-6.63e-6,"MEAN_MOTION_DDOT":0},{"OBJECT_NAME":"STARLINK-3714","OBJECT_ID":"2022-029G","EPOCH":"2026-03-07T07:00:56.907648","MEAN_MOTION":15.08840046,"ECCENTRICITY":0.00012298,"INCLINATION":53.2164,"RA_OF_ASC_NODE":99.8856,"ARG_OF_PERICENTER":62.1984,"MEAN_ANOMALY":297.9133,"EPHEMERIS_TYPE":0,"CLASSIFICATION_TYPE":"U","NORAD_CAT_ID":52094,"ELEMENT_SET_NO":999,"REV_AT_EPOCH":22029,"BSTAR":3.0435494e-5,"MEAN_MOTION_DOT":1.97e-6,"MEAN_MOTION_DDOT":0},{"OBJECT_NAME":"STARLINK-3701","OBJECT_ID":"2022-029H","EPOCH":"2026-03-07T06:45:05.162400","MEAN_MOTION":15.08846188,"ECCENTRICITY":0.00013256,"INCLINATION":53.2168,"RA_OF_ASC_NODE":99.9334,"ARG_OF_PERICENTER":79.0859,"MEAN_ANOMALY":281.0282,"EPHEMERIS_TYPE":0,"CLASSIFICATION_TYPE":"U","NORAD_CAT_ID":52095,"ELEMENT_SET_NO":999,"REV_AT_EPOCH":22029,"BSTAR":0.00093071014,"MEAN_MOTION_DOT":0.00014558,"MEAN_MOTION_DDOT":0},{"OBJECT_NAME":"STARLINK-3717","OBJECT_ID":"2022-029J","EPOCH":"2026-03-07T07:49:57.675072","MEAN_MOTION":15.08843869,"ECCENTRICITY":0.00016614,"INCLINATION":53.2181,"RA_OF_ASC_NODE":89.7291,"ARG_OF_PERICENTER":88.7275,"MEAN_ANOMALY":271.3908,"EPHEMERIS_TYPE":0,"CLASSIFICATION_TYPE":"U","NORAD_CAT_ID":52096,"ELEMENT_SET_NO":999,"REV_AT_EPOCH":22042,"BSTAR":1.9317426e-5,"MEAN_MOTION_DOT":1.9e-7,"MEAN_MOTION_DDOT":0},{"OBJECT_NAME":"STARLINK-3665","OBJECT_ID":"2022-029L","EPOCH":"2026-03-07T06:50:20.644224","MEAN_MOTION":15.08841781,"ECCENTRICITY":0.00013092,"INCLINATION":53.2159,"RA_OF_ASC_NODE":99.9161,"ARG_OF_PERICENTER":93.5087,"MEAN_ANOMALY":266.6055,"EPHEMERIS_TYPE":0,"CLASSIFICATION_TYPE":"U","NORAD_CAT_ID":52098,"ELEMENT_SET_NO":999,"REV_AT_EPOCH":22029,"BSTAR":7.1263587e-5,"MEAN_MOTION_DOT":8.46e-6,"MEAN_MOTION_DDOT":0},{"OBJECT_NAME":"STARLINK-3702","OBJECT_ID":"2022-029N","EPOCH":"2026-03-07T06:39:45.345888","MEAN_MOTION":15.08835998,"ECCENTRICITY":0.00012943,"INCLINATION":53.2165,"RA_OF_ASC_NODE":99.9504,"ARG_OF_PERICENTER":99.0356,"MEAN_ANOMALY":261.0782,"EPHEMERIS_TYPE":0,"CLASSIFICATION_TYPE":"U","NORAD_CAT_ID":52100,"ELEMENT_SET_NO":999,"REV_AT_EPOCH":22029,"BSTAR":0.0001311454,"MEAN_MOTION_DOT":1.8e-5,"MEAN_MOTION_DDOT":0},{"OBJECT_NAME":"STARLINK-3703","OBJECT_ID":"2022-029P","EPOCH":"2026-03-07T06:55:40.640448","MEAN_MOTION":15.08840943,"ECCENTRICITY":0.00012949,"INCLINATION":53.2174,"RA_OF_ASC_NODE":100.0933,"ARG_OF_PERICENTER":94.8789,"MEAN_ANOMALY":265.2351,"EPHEMERIS_TYPE":0,"CLASSIFICATION_TYPE":"U","NORAD_CAT_ID":52101,"ELEMENT_SET_NO":999,"REV_AT_EPOCH":22028,"BSTAR":0.00012113963,"MEAN_MOTION_DOT":1.641e-5,"MEAN_MOTION_DDOT":0},{"OBJECT_NAME":"STARLINK-3709","OBJECT_ID":"2022-029Q","EPOCH":"2026-03-07T06:42:27.286272","MEAN_MOTION":15.08842623,"ECCENTRICITY":0.00012702,"INCLINATION":53.2162,"RA_OF_ASC_NODE":89.9406,"ARG_OF_PERICENTER":96.6435,"MEAN_ANOMALY":263.4701,"EPHEMERIS_TYPE":0,"CLASSIFICATION_TYPE":"U","NORAD_CAT_ID":52102,"ELEMENT_SET_NO":999,"REV_AT_EPOCH":22042,"BSTAR":-4.5900053e-5,"MEAN_MOTION_DOT":-1.018e-5,"MEAN_MOTION_DDOT":0},{"OBJECT_NAME":"STARLINK-3705","OBJECT_ID":"2022-029R","EPOCH":"2026-03-07T07:39:21.810816","MEAN_MOTION":15.0884619,"ECCENTRICITY":0.00013057,"INCLINATION":53.2166,"RA_OF_ASC_NODE":89.7635,"ARG_OF_PERICENTER":87.6881,"MEAN_ANOMALY":272.426,"EPHEMERIS_TYPE":0,"CLASSIFICATION_TYPE":"U","NORAD_CAT_ID":52103,"ELEMENT_SET_NO":999,"REV_AT_EPOCH":22042,"BSTAR":0.00013729356,"MEAN_MOTION_DOT":1.898e-5,"MEAN_MOTION_DDOT":0},{"OBJECT_NAME":"STARLINK-3706","OBJECT_ID":"2022-029T","EPOCH":"2026-03-07T07:30:08.796384","MEAN_MOTION":15.08839649,"ECCENTRICITY":0.00012575,"INCLINATION":53.2168,"RA_OF_ASC_NODE":89.792,"ARG_OF_PERICENTER":84.9155,"MEAN_ANOMALY":275.198,"EPHEMERIS_TYPE":0,"CLASSIFICATION_TYPE":"U","NORAD_CAT_ID":52105,"ELEMENT_SET_NO":999,"REV_AT_EPOCH":22042,"BSTAR":0.00011419352,"MEAN_MOTION_DOT":1.53e-5,"MEAN_MOTION_DDOT":0},{"OBJECT_NAME":"STARLINK-3670","OBJECT_ID":"2022-029U","EPOCH":"2026-03-07T06:23:51.491616","MEAN_MOTION":15.08838348,"ECCENTRICITY":0.00012727,"INCLINATION":53.2171,"RA_OF_ASC_NODE":99.9996,"ARG_OF_PERICENTER":93.0959,"MEAN_ANOMALY":267.0179,"EPHEMERIS_TYPE":0,"CLASSIFICATION_TYPE":"U","NORAD_CAT_ID":52106,"ELEMENT_SET_NO":999,"REV_AT_EPOCH":22028,"BSTAR":2.9467844e-5,"MEAN_MOTION_DOT":1.81e-6,"MEAN_MOTION_DDOT":0},{"OBJECT_NAME":"STARLINK-3658","OBJECT_ID":"2022-029V","EPOCH":"2026-03-07T07:23:28.080096","MEAN_MOTION":15.08842527,"ECCENTRICITY":0.00013719,"INCLINATION":53.2178,"RA_OF_ASC_NODE":89.8112,"ARG_OF_PERICENTER":94.9952,"MEAN_ANOMALY":265.1197,"EPHEMERIS_TYPE":0,"CLASSIFICATION_TYPE":"U","NORAD_CAT_ID":52107,"ELEMENT_SET_NO":999,"REV_AT_EPOCH":22042,"BSTAR":2.4939024e-5,"MEAN_MOTION_DOT":1.09e-6,"MEAN_MOTION_DDOT":0},{"OBJECT_NAME":"STARLINK-3698","OBJECT_ID":"2022-029W","EPOCH":"2026-03-07T07:34:04.539648","MEAN_MOTION":15.0883885,"ECCENTRICITY":0.00012404,"INCLINATION":53.2165,"RA_OF_ASC_NODE":89.7789,"ARG_OF_PERICENTER":83.6158,"MEAN_ANOMALY":276.4975,"EPHEMERIS_TYPE":0,"CLASSIFICATION_TYPE":"U","NORAD_CAT_ID":52108,"ELEMENT_SET_NO":999,"REV_AT_EPOCH":22042,"BSTAR":0.00014097971,"MEAN_MOTION_DOT":1.956e-5,"MEAN_MOTION_DDOT":0},{"OBJECT_NAME":"STARLINK-3687","OBJECT_ID":"2022-029Y","EPOCH":"2026-03-07T07:28:45.554304","MEAN_MOTION":15.08839231,"ECCENTRICITY":0.000129,"INCLINATION":53.2169,"RA_OF_ASC_NODE":89.7957,"ARG_OF_PERICENTER":81.6512,"MEAN_ANOMALY":278.4627,"EPHEMERIS_TYPE":0,"CLASSIFICATION_TYPE":"U","NORAD_CAT_ID":52110,"ELEMENT_SET_NO":999,"REV_AT_EPOCH":22042,"BSTAR":-5.6958758e-5,"MEAN_MOTION_DOT":-1.194e-5,"MEAN_MOTION_DDOT":0}]
