STARLINK-3712           
1 52090U 22029C   26066.29600441  .00001467  00000+0  11027-3 0  9998
2 52090  53.2170  99.8674 0001340  92.4439 267.6706 15.08840602220291
STARLINK-3716           
1 52092U 22029E   26066.29968267  .00000133  00000+0  26440-4 0  9998
2 52092  53.2153  99.8483 0001337  91.4197 268.6949 15.08839308220299
STARLINK-3673           
1 52093U 22029F   26066.28960590 -.00000663  00000+0 -23586-4 0  9997
2 52093  53.2153  99.9078 0001600  87.3404 272.7771 15.08845289220293
STARLINK-3714           
1 52094U 22029G   26066.29232532  .00000197  00000+0  30435-4 0  9998
2 52094  53.2164  99.8856 0001229  62.1984 297.9133 15.08840046220297
STARLINK-3701           
1 52095U 22029H   26066.28130975  .00014558  00000+0  93071-3 0  9996
2 52095  53.2168  99.9334 0001325  79.0859 281.0282 15.08846188220291
STARLINK-3717           
1 52096U 22029J   26066.32636198  .00000019  00000+0  19317-4 0  9999
2 52096  53.2181  89.7291 0001661  88.7275 271.3908 15.08843869220423
STARLINK-3665           
1 52098U 22029L   26066.28496116  .00000846  00000+0  71264-4 0  9997
2 52098  53.2159  99.9161 0001309  93.5087 266.6055 15.08841781220299
STARLINK-3702           
1 52100U 22029N   26066.27760817  .00001800  00000+0  13115-3 0  9993
2 52100  53.2165  99.9504 0001294  99.0356 261.0782 15.08835998220293
STARLINK-3703           
1 52101U 22029P   26066.28866482  .00001641  00000+0  12114-3 0  9991
2 52101  53.2174 100.0933 0001294  94.8789 265.2351 15.08840943220280
STARLINK-3709           
1 52102U 22029Q   26066.27948248 -.00001018  00000+0 -45900-4 0  9992
2 52102  53.2162  89.9406 0001270  96.6435 263.4701 15.08842623220422
STARLINK-3705           
1 52103U 22029R   26066.31900244  .00001898  00000+0  13729-3 0  9999
2 52103  53.2166  89.7635 0001305  87.6881 272.4260 15.08846190220426
STARLINK-3706           
1 52105U 22029T   26066.31260181  .00001530  00000+0  11419-3 0  9997
2 52105  53.2168  89.7920 0001257  84.9155 275.1980 15.08839649220427
STARLINK-3670           
1 52106U 22029U   26066.26656819  .00000181  00000+0  29468-4 0  9994
2 52106  53.2171  99.9996 0001272  93.0959 267.0179 15.08838348220287
STARLINK-3658           
1 52107U 22029V   26066.30796389  .00000109  00000+0  24939-4 0  9995
2 52107  53.2178  89.8112 0001371  94.9952 265.1197 15.08842527220425
STARLINK-3698           
1 52108U 22029W   26066.31533032  .00001956  00000+0  14098-3 0  9996
2 52108  53.2165  89.7789 0001240  83.6158 276.4975 15.08838850220422
STARLINK-3687           
1 52110U 22029Y   26066.31163836 -.00001194  00000+0 -56959-4 0  9999
2 52110  53.2169  89.7957 0001290  81.6512 278.4627 15.08839231220423
